[{"OBJECT_NAME":"STARLINK-30230","OBJECT_ID":"2023-113J","EPOCH":"2026-03-09T22:00:01.999584","MEAN_MOTION":15.23948745,"ECCENTRICITY":0.00017169,"INCLINATION":43.0048,"RA_OF_ASC_NODE":14.439,"ARG_OF_PERICENTER":268.4121,"MEAN_ANOMALY":100.0881,"EPHEMERIS_TYPE":0,"CLASSIFICATION_TYPE":"U","NORAD_CAT_ID":57503,"ELEMENT_SET_NO":999,"REV_AT_EPOCH":573,"BSTAR":0.036895562,"MEAN_MOTION_DOT":0.00988994,"MEAN_MOTION_DDOT":0},{"OBJECT_NAME":"FLOCK 4BE-28","OBJECT_ID":"2024-149BD","EPOCH":"2026-03-09T17:19:29.847072","MEAN_MOTION":15.4101972,"ECCENTRICITY":0.00035041,"INCLINATION":97.3779,"RA_OF_ASC_NODE":153.2276,"ARG_OF_PERICENTER":284.6486,"MEAN_ANOMALY":75.4372,"EPHEMERIS_TYPE":0,"CLASSIFICATION_TYPE":"U","NORAD_CAT_ID":60519,"ELEMENT_SET_NO":999,"REV_AT_EPOCH":8710,"BSTAR":0.00056831294,"MEAN_MOTION_DOT":0.00023409,"MEAN_MOTION_DDOT":0}]
